{"fetched_at":"2026-07-07T07:58:50.970Z","source":"https://celestrak.org/NORAD/elements/gp.php?NAME=SENTINEL&FORMAT=JSON","constellation":"sentinel-5p","records":[{"OBJECT_NAME":"SENTINEL-5P","OBJECT_ID":"2017-064A","EPOCH":"2026-07-06T17:26:08.004192","CLASSIFICATION_TYPE":"U","MEAN_MOTION":14.19522294,"ECCENTRICITY":0.0001099,"INCLINATION":98.7927,"RA_OF_ASC_NODE":129.7191,"ARG_OF_PERICENTER":92.1824,"MEAN_ANOMALY":267.9478,"EPHEMERIS_TYPE":0,"NORAD_CAT_ID":42969,"ELEMENT_SET_NO":999,"REV_AT_EPOCH":45233,"BSTAR":0.000044456,"MEAN_MOTION_DOT":4.9e-7,"MEAN_MOTION_DDOT":0}]}
